{
  "type": "FeatureCollection",
  "features": [
    {
      "type": "Feature",
      "properties": {
        "norad_id": 37836,
        "name": "EUTELSAT 16A",
        "group": "eutelsat",
        "lat": 0.028819174269641364,
        "lon": -1.6966566306334703,
        "alt_km": 35786.46224093672,
        "timestamp": "2025-12-19T16:54:43.922414+00:00",
        "meta_object_name": "EUTELSAT 16A",
        "meta_object_id": "2011-057A",
        "meta_epoch": "2025-12-19T04:46:45.532704",
        "meta_mean_motion": 1.00268777,
        "meta_eccentricity": 0.00058489,
        "meta_inclination": 0.0612,
        "meta_ra_of_asc_node": 334.9159,
        "meta_arg_of_pericenter": 294.3217,
        "meta_mean_anomaly": 266.5229,
        "meta_ephemeris_type": 0,
        "meta_classification_type": "U",
        "meta_norad_cat_id": 37836,
        "meta_element_set_no": 999,
        "meta_rev_at_epoch": 552,
        "meta_bstar": 0,
        "meta_mean_motion_dot": 1.29e-06,
        "meta_mean_motion_ddot": 0,
        "tle_line1": "1 37836U 11057A   25353.19913811  .00000129  00000+0  00000+0 0  9992",
        "tle_line2": "2 37836   0.0612 334.9159 0005848 294.3217 266.5229  1.00268777  5527"
      },
      "geometry": {
        "type": "Point",
        "coordinates": [
          -1.6966566306334703,
          0.028819174269641364
        ]
      }
    },
    {
      "type": "Feature",
      "properties": {
        "norad_id": 38992,
        "name": "EUTELSAT 21B",
        "group": "eutelsat",
        "lat": 0.03792958857059746,
        "lon": 3.8694381628215893,
        "alt_km": 35787.42743563681,
        "timestamp": "2025-12-19T16:54:43.922426+00:00",
        "meta_object_name": "EUTELSAT 21B",
        "meta_object_id": "2012-062B",
        "meta_epoch": "2025-12-19T06:31:05.539296",
        "meta_mean_motion": 1.00268321,
        "meta_eccentricity": 0.00032275,
        "meta_inclination": 0.0701,
        "meta_ra_of_asc_node": 337.5335,
        "meta_arg_of_pericenter": 294.5762,
        "meta_mean_anomaly": 295.4019,
        "meta_ephemeris_type": 0,
        "meta_classification_type": "U",
        "meta_norad_cat_id": 38992,
        "meta_element_set_no": 999,
        "meta_rev_at_epoch": 4802,
        "meta_bstar": 0,
        "meta_mean_motion_dot": 1.55e-06,
        "meta_mean_motion_ddot": 0,
        "tle_line1": "1 38992U 12062B   25353.27159189  .00000155  00000+0  00000+0 0  9991",
        "tle_line2": "2 38992   0.0701 337.5335 0003227 294.5762 295.4019  1.00268321 48026"
      },
      "geometry": {
        "type": "Point",
        "coordinates": [
          3.8694381628215893,
          0.03792958857059746
        ]
      }
    },
    {
      "type": "Feature",
      "properties": {
        "norad_id": 39020,
        "name": "EUTELSAT 70B",
        "group": "eutelsat",
        "lat": 0.0707926134597193,
        "lon": 52.73002255817405,
        "alt_km": 35803.310461042376,
        "timestamp": "2025-12-19T16:54:43.922438+00:00",
        "meta_object_name": "EUTELSAT 70B",
        "meta_object_id": "2012-069A",
        "meta_epoch": "2025-12-19T05:02:06.562752",
        "meta_mean_motion": 1.00271337,
        "meta_eccentricity": 0.00043016,
        "meta_inclination": 0.0608,
        "meta_ra_of_asc_node": 1.6448,
        "meta_arg_of_pericenter": 250.9533,
        "meta_mean_anomaly": 341.4828,
        "meta_ephemeris_type": 0,
        "meta_classification_type": "U",
        "meta_norad_cat_id": 39020,
        "meta_element_set_no": 999,
        "meta_rev_at_epoch": 4770,
        "meta_bstar": 0,
        "meta_mean_motion_dot": -1.9e-07,
        "meta_mean_motion_ddot": 0,
        "tle_line1": "1 39020U 12069A   25353.20979818 -.00000019  00000+0  00000+0 0  9993",
        "tle_line2": "2 39020   0.0608   1.6448 0004301 250.9533 341.4828  1.00271337 47700"
      },
      "geometry": {
        "type": "Point",
        "coordinates": [
          52.73002255817405,
          0.0707926134597193
        ]
      }
    },
    {
      "type": "Feature",
      "properties": {
        "norad_id": 39122,
        "name": "EUTELSAT 117 WEST A",
        "group": "eutelsat",
        "lat": -0.013658711929363451,
        "lon": -134.59105004841268,
        "alt_km": 35777.97416265588,
        "timestamp": "2025-12-19T16:54:43.922450+00:00",
        "meta_object_name": "EUTELSAT 117 WEST A",
        "meta_object_id": "2013-012A",
        "meta_epoch": "2025-12-19T05:51:39.314592",
        "meta_mean_motion": 1.00273001,
        "meta_eccentricity": 0.00027105,
        "meta_inclination": 0.0298,
        "meta_ra_of_asc_node": 48.9199,
        "meta_arg_of_pericenter": 224.1187,
        "meta_mean_anomaly": 146.1787,
        "meta_ephemeris_type": 0,
        "meta_classification_type": "U",
        "meta_norad_cat_id": 39122,
        "meta_element_set_no": 999,
        "meta_rev_at_epoch": 4662,
        "meta_bstar": 0,
        "meta_mean_motion_dot": 1.1e-07,
        "meta_mean_motion_ddot": 0,
        "tle_line1": "1 39122U 13012A   25353.24420503  .00000011  00000+0  00000+0 0  9992",
        "tle_line2": "2 39122   0.0298  48.9199 0002710 224.1187 146.1787  1.00273001 46629"
      },
      "geometry": {
        "type": "Point",
        "coordinates": [
          -134.59105004841268,
          -0.013658711929363451
        ]
      }
    },
    {
      "type": "Feature",
      "properties": {
        "norad_id": 39163,
        "name": "EUTELSAT 7B",
        "group": "eutelsat",
        "lat": -0.010566664091192083,
        "lon": -10.755749420777567,
        "alt_km": 35770.52657072767,
        "timestamp": "2025-12-19T16:54:43.922463+00:00",
        "meta_object_name": "EUTELSAT 7B",
        "meta_object_id": "2013-022A",
        "meta_epoch": "2025-12-19T06:26:58.432704",
        "meta_mean_motion": 1.00270274,
        "meta_eccentricity": 0.00042834,
        "meta_inclination": 0.0652,
        "meta_ra_of_asc_node": 356.9078,
        "meta_arg_of_pericenter": 324.8571,
        "meta_mean_anomaly": 230.1004,
        "meta_ephemeris_type": 0,
        "meta_classification_type": "U",
        "meta_norad_cat_id": 39163,
        "meta_element_set_no": 999,
        "meta_rev_at_epoch": 4614,
        "meta_bstar": 0,
        "meta_mean_motion_dot": 7.3e-07,
        "meta_mean_motion_ddot": 0,
        "tle_line1": "1 39163U 13022A   25353.26873186  .00000073  00000+0  00000+0 0  9997",
        "tle_line2": "2 39163   0.0652 356.9078 0004283 324.8571 230.1004  1.00270274 46140"
      },
      "geometry": {
        "type": "Point",
        "coordinates": [
          -10.755749420777567,
          -0.010566664091192083
        ]
      }
    },
    {
      "type": "Feature",
      "properties": {
        "norad_id": 39612,
        "name": "EXPRESS-AT1",
        "group": "eutelsat",
        "lat": 0.04292949506636198,
        "lon": 38.19400886137318,
        "alt_km": 35785.99003141567,
        "timestamp": "2025-12-19T16:54:43.922481+00:00",
        "meta_object_name": "EXPRESS-AT1",
        "meta_object_id": "2014-010A",
        "meta_epoch": "2025-12-19T04:58:14.432736",
        "meta_mean_motion": 1.00268839,
        "meta_eccentricity": 6.278e-05,
        "meta_inclination": 0.0247,
        "meta_ra_of_asc_node": 333.23,
        "meta_arg_of_pericenter": 136.0736,
        "meta_mean_anomaly": 109.2997,
        "meta_ephemeris_type": 0,
        "meta_classification_type": "U",
        "meta_norad_cat_id": 39612,
        "meta_element_set_no": 999,
        "meta_rev_at_epoch": 4301,
        "meta_bstar": 0,
        "meta_mean_motion_dot": 0,
        "meta_mean_motion_ddot": 0,
        "tle_line1": "1 39612U 14010A   25353.20711149  .00000000  00000+0  00000+0 0  9998",
        "tle_line2": "2 39612   0.0247 333.2300 0000627 136.0736 109.2997  1.00268839 43013"
      },
      "geometry": {
        "type": "Point",
        "coordinates": [
          38.19400886137318,
          0.04292949506636198
        ]
      }
    },
    {
      "type": "Feature",
      "properties": {
        "norad_id": 39613,
        "name": "EXPRESS-AT2",
        "group": "eutelsat",
        "lat": 0.01736646678938222,
        "lon": 122.07523522383083,
        "alt_km": 35790.30770654858,
        "timestamp": "2025-12-19T16:54:43.922507+00:00",
        "meta_object_name": "EXPRESS-AT2",
        "meta_object_id": "2014-010B",
        "meta_epoch": "2025-12-19T07:04:55.947936",
        "meta_mean_motion": 1.0027165,
        "meta_eccentricity": 0.00010069,
        "meta_inclination": 0.0159,
        "meta_ra_of_asc_node": 313.8,
        "meta_arg_of_pericenter": 335.1745,
        "meta_mean_anomaly": 45.2607,
        "meta_ephemeris_type": 0,
        "meta_classification_type": "U",
        "meta_norad_cat_id": 39613,
        "meta_element_set_no": 999,
        "meta_rev_at_epoch": 4269,
        "meta_bstar": 0,
        "meta_mean_motion_dot": -2.56e-06,
        "meta_mean_motion_ddot": 0,
        "tle_line1": "1 39613U 14010B   25353.29509199 -.00000256  00000+0  00000+0 0  9992",
        "tle_line2": "2 39613   0.0159 313.8000 0001006 335.1745  45.2607  1.00271650 42696"
      },
      "geometry": {
        "type": "Point",
        "coordinates": [
          122.07523522383083,
          0.01736646678938222
        ]
      }
    }
  ]
}